name,address,lat,lon
Bienen-Nest Linkenheim,"Pestalozzistraße 24, 76351 Linkenheim",49.125650404249974,8.4070654
Ackerlei Seligenstadt,"Schachenweg 3, 63500 Seligenstadt",50.02919952157191,8.958543057121313
ANNALINDE,"Lützner Straße 108, 04177 Leipzig",51.33478348566764,12.324803128291435
Hof Ritzmann,"Kahlheckerhof 3, 67722 Winnweiler",49.57633596246649,7.823421455978691
Sandhof Rodgau,"Westweiler 3, 63110 Rodgau",50.03203387146177,8.868850983828018
Melders Hofladen,"Karlsruher Str. 55, 76676 Graben-Neudorf",49.155455340216946,8.482757539323224
Hof zur Hellen,"Windrather Str. 197, 42553 Velbert",51.31945029955121,7.13450978408508
Oberschuirshof,"Schuirweg 61, 45133 Essen",51.39208495986732,6.972564370120532
Hofladen Forstmannshof,"Westrup 10, 59348 Lüdinghausen",51.778696606721034,7.4844678701408185
Wesselhof,"Hagenweg 7, 27243 Dünsen",52.91829818308588,8.616656197189801
Biohofladen Glück,"Grassach 15, 84529 Tittmoning",48.06154642451379,12.741589023660255
Gut Augustenhof,"Gut Augustenhof, 24251 Osdorf",54.42296975189143,10.002176089246161
Hofgut Neubronn,"Neubronn 2, 89233 Neu-Ulm",48.369951218714256,10.098264210448477
Bio- Landhof Mack,"Knillweg 9, 89555 Steinheim am Albuch",48.67956914633543,10.073634895122895
Bauer's Hofladen,"Klotzscher Str. 30, 01465 Dresden",51.13196072106756,13.838388985448027
Blümels Hof,"Ruhmannshof 4, 21647 Moisburg",53.40558761626093,9.735204583311834
Ackerlei Bruchköbel-Oberissigheim,"An der Landwehr 6, 63486 Bruchköbel",50.18390617039978,8.958938554346966
Gut Clarenhof Hofladen,"Adrian-Meller-Straße, 50859 Köln",50.959465980991645,6.82945610731209
Hegehof,"Neuzeilsheim 19, 68526 Ladenburg",49.48932999716417,8.612273538957426
Hofgut Friedelhausen,"Hofgut Friedelhausen, 35457 Friedelhausen",50.68427091039629,8.71082778357783
Boierhof,"Boierhof 1, 93497 Willmering",49.243172245211625,12.67300865265218
Klöcker's Hofladen,"Hebewerkstraße 119, 44577 Castrop-Rauxel",51.60890250394747,7.315221585473022
Hofladen Weiden,"Zur Drehscheibe 2, 92637 Weiden in der Oberpfalz",49.679376789787185,12.159251381679246
Molkerei Naturprodukt Rügener Inselfrische,"Poseritz Hof 15, 18574 Poseritz",54.30491495215802,13.272852012606064
Bioland-Gärtnerei Dänzer,"Luzerner Str. 6, 71522 Backnang",48.93487417443182,9.418061896982644
Deckers Hofladen Bühl-Weitenung,"Ottenhofener Str. 27, 77815 Bühl",48.73296142579643,8.12990008130658
Schultenhof,"Stockumer Str. 109, 44225 Dortmund",51.47909410207635,7.448842024101758
Hof Brugger,"Dornierstraße 139, 88048 Friedrichshafen",47.67916344208281,9.419926792779677
Hofladen Eibl Klostersee,"Klostersee 1, 23743 Grömitz",54.19232946853557,11.015518754929332
Gut Kerkow,"Greiffenberger Str. 8, 16278 Angermünde",53.0369494973485,13.988151827878372
Hof Schröder,"Kiebitzstraße 15, 33334 Gütersloh",51.882487970590454,8.353121597134663
Hofladen Alteburg,"Alteburg Hofgut 1, 72770 Reutlingen",48.46221470244251,9.15213499695892
Ludwighof Hoffenheim,"Waibstadter Str. 5, 74889 Sinsheim",49.27275850088274,8.84131968149795
Ökohof Kuhhorst,"Dorfstraße 9, 16818 Fehrbellin",52.719199153242144,12.8538798548497
Meierei Geestfrisch,"Fuhlreit, 24848 Kropp",54.38866192287025,9.501691643292853
Bahn-Hofladen Rottenbach Königsee,"Rottenbach, Am Bahnhof 3, 07426 Königsee",50.6892802774963,11.169865712690068
Rathshof Henn,"Tillinghausen 6-8, 53804 Much",50.91779915694688,7.396408039413578
Hof Rotermund,"Am Weiherfeld 5, 30855 Langenhagen",52.47644992896837,9.72965181250727
Schmids Bauernladen,"Lazariterstraße 25, 79189 Bad Krozingen",47.92476802896009,7.673436268096954
Tietjens Bauernhof,"Buchtstraße 18, 27711 Osterholz-Scharmbeck",53.489579000590126,8.778882911193366
Schwalbenhof,"Uhlandstraße 2, 76332 Bad Herrenalb",48.817705529154175,8.480617481336424
Kibitzhof,"Rhedaer Str. 220, 33334 Gütersloh",51.883045495206346,8.34408544382879
Fuchshof,"Im Langenberg 1, 78465 Konstanz",47.72862060492468,9.16061065828696
Brothofladen Waake,"Hacketalstraße 1, 37136 Waake",51.55561008121299,10.055821770129166
Auengarten,"An der Mühlpleiße 6, 04279 Leipzig",51.29148540632635,12.388759725938932
Hofladen Am Dümmer Die Gemüsegärtner,"Im Dorfe 53, 49448 Hüde",52.49103105758017,8.356273526002242
Hof Heuer Göddingen,"Landstraße 18, 21354 Bleckede, Ortsteil Göddingen",53.25677499364847,10.760326899054908
Hofgut Portz,"Schloss-Straße 1, 54340 Bekond",49.84927968543768,6.80481833752777
Hofladen Aichler,"Unterriexinger Str. 3/1, 71732 Tamm",48.919775923046906,9.11146999698184
Joest's Hofladen,"Gräfingsholz 1, 58540 Meinerzhagen",51.11521883870303,7.6208308277765795
Hamfelder Hof Höfeladen,"Dorfstraße 35, 21493 Mühlenrade",53.59913473674973,10.488397427265088
Hofladen Obsthof Brüggenwirth,"Im Winkel 2, 31559 Hohnhorst",52.35654791883417,9.347722912500878
Ruf´s Hofladen,"Großried 5, 87650 Baisweil",47.963485130970085,10.566829669389358
Gemüse Hof Annette Motka,"Amperpettenbacher Str. 16, 85778 Haimhausen",48.321406922894816,11.540867810446136
Landkäserei Fehling,"Schulweg 1, 21423 Drage",53.36332202804602,10.302784039543184
Bioladen Gut Wilhelmsdorf,"Verler Str. 250, 33689 Bielefeld",51.926089866762226,8.551889483642801
Stroh-Lädchen,"Am Boden 1, 35435 Wettenberg",50.6317363957264,8.686808137922792
Spargelhof Strampe,"Lüneburger Landstraße 1A, 21398 Neetze",53.264950399647,10.623498341384828
Obsthof Wengle,"Berger Str. 8, 88079 Kressbronn am Bodensee",47.599929230202434,9.603440127598448
Hofladen Hof Walden,"Große Bauernreihe 6, 18317 Saal",54.29624459202396,12.526517331640553
Biohof Bursch,"Weidenpeschweg 31, 53332 Bornheim",50.767714468666966,6.955997441553929
Hofladen Czycholl,"Schönfelderstraße 25, 71384 Weinstadt",48.801065540591175,9.380831023964262
Naturhof Wolfsberg,"Raiffeisenstraße 51, 53347 Alfter",50.699782745215366,7.015748519235999
Hof Falkenhusen,"Absalonshorster Weg, 23562 Lübeck",53.824747596896025,10.750586599085654
Gut Wallenburg,"Wallenburg 79e, 83714 Miesbach",47.805036560211825,11.828780854314086
Bioland Apfelbacher,"Tomberstraße 1, 53332 Bornheim",50.74961175640095,6.96425916931709
Ursula‘s Bio Gemüsehof und Hofladen,"Untere Dorfstraße 4, 90427 Nürnberg",49.52062913097228,11.052424154468971
StadtLandGemüse in Köln-Ehrenfeld,"Senefelder Straße 3, 50825 Köln",50.95219556937057,6.914705008585126
Gut Wulfsdorf,"Bornkampsweg 39, 22926 Ahrensburg",53.65971211096821,10.190508144934975
Klostergut Heiningen,"Gutshof 2, 38312 Heiningen",52.07264090729994,10.555867154630432
Obsthof Wenz Söllingen,"Obsthof 1, 76327 Pfinztal",48.985281857179835,8.527903325600494
"Vulkanhof, Gillenfeld, Eifel","Vulkanstraße 29, 54558 Gillenfeld",50.12866791633761,6.914175038634181
Käse-Hof-Laden Pilsum,"Tjücher Weg 1, 26736 Krummhörn",53.475758295185045,7.077217708697325
Biohof Meyer Arend,"Im Barrenholze 60, 32051 Herford",52.12194823364066,8.630492893888267
Obsthof Lamb,"Alsenzstraße 2, 67822 Mannweiler-Cölln",49.70048326006015,7.80323666756507
Johanneshof,"Seewaldsiedlung 5, 68766 Hockenheim",49.34946924548393,8.505402794531058
Bauckhof,"Triangel 6, 21385 Amelinghausen",53.132410507370544,10.217954494778155
Gemüsehof Steiger,"Dahlienstraße 100, 53332 Bornheim",50.773169592749674,6.955017081128225
Meyerhof,"Belmer Str. 11, 49191 Belm",52.30039900768899,8.140579867734274
Kökelsumer Hofladen,"Kökelsum 2, 59399 Olfen",51.726748940513026,7.3618205767054645
Hofladen Wünnerhof,"Felderbachstraße 32, 45529 Hattingen",51.35025427063261,7.168013829285529
"Gut zur Linden, Wuppertal","Gruitener Straße 308, 42327 Wuppertal",51.22175540007236,7.044281494651569
Wendler's Hofladen,"Sebastianstraße 15, 91058 Erlangen",49.54708455506421,11.03148265206196
Regionalladen Landwirtschaftsbetrieb Wolfgramm,"Zum alten Mischplatz3, 17498 Levenhagen",54.08696067611019,13.272278298877822
Ammersee Biohof,"Schondorfer Straße 22, 86919 Utting am Ammersee",48.03750477792303,11.089279996707152
Der Hofladen Hörger,"Schmiedstraße 8, 85635 Höhenkirchen-Siegertsbrunn",48.02139727759113,11.726951495584
Der Marienhof,"Dorfstraße 20, 25852 Bordelum",54.63269856241488,8.936067292455162
Hof Schmidt - Bunte Bentheimer,"Huntloser Straße 298, 26203 Wardenburg",53.02735746683514,8.227850583527708
Grasfresser,"Birkenhof, 67578 Gimbsheim",49.77804716105127,8.387501935298848
Eibl Hofladen,"Wattsmannstraße 77, 84034 Landshut",48.538265136199335,12.118791921298529
Warzlberger Hof,"Warzlberg 1, 84095 Furth",48.583739454737746,11.976137930711948
Bioland Gärtnerei Sebastian Niedermaier,"Mittelstraße 42, 96052 Bamberg",49.89963721292253,10.891994939763602
Köstlichkeiten und Kultur Hofladen Loburg,"Sirksfeld 1, 48653 Coesfeld",51.94886214208683,7.139740991759996
Glasers Hofmarkt,"Schafwiesen 1, 71706 Markgröningen",48.893924702707864,9.079149267924139
Haug's Hof,"Stubenberghöfe 3, 71263 Weil der Stadt",48.73207567482726,8.903536435850848
Hof am Hochwald,"Am Hochwald 5, 47589 Uedem",51.68219672598183,6.330339166570912
Bauerngut Schiefelbusch,"Schiefelbusch 3, 53797 Lohmar",50.89945126716103,7.22813428331487
Bobbert,"Alleestraße 3, 33649 Bielefeld",52.00097646155799,8.483499841131946
Dollingerhof Solawi Dollinger,"Offenbau-Tunnel 24, 91177 Thalmässing",49.12228188556706,11.270842912115025
Hofladen Buchberghof Tegernsee,"Buchbergweg 1, 83707 Bad Wiessee",47.741294561413234,11.705872915341455
Hofladen & Gärtnerei Findeisen,"Kaditzerstraße 3, 01445 Radebeul",51.09751373404863,13.675200969909527
Kreuzegertenhof,"Kreuzegertenhof 1, 79400 Kandern",47.71332483088683,7.650622019728601
Lammertzhof,"Lammertzhof, 41564 Kaarst",51.20696957637561,6.601528269916488
Mertens Wiesbrock,"Schulstraße 123a, 33397 Rietberg",51.84889810628553,8.437521154616084
Bauernladen Lörrach Obst- und Gemüsehof Schopferer,"Alte Rheinfelder Str. 10,79539 Lörrach",47.60803540407108,7.680867281339734
Hoflädle Ritz,"Hemminger Str. 201, 70499 Stuttgart",48.83233823374295,9.093897985109367
Elli´s Hofladen Gottschalk Obst,"Binger Str. 53, 55218 Ingelheim am Rhein",49.975055953554275,8.059008200063731
Bioland Hofladen Familie Bräuchler,"Häberlings 4, 88317 Aichstetten",47.903178286309455,10.028065166016109
Obersteinberger Hof,"Hof Obersteinberg, 35415 Pohlheim",50.52080858612656,8.701360668025474
Kölner Bio Bauer,"Poll-Vingster- Str. 215, 51106 Köln",50.926249570902534,7.017163912227936
Domäne Mechtildshausen,"Mechthildhausen 1, 65205 Wiesbaden",50.0377781576729,8.323108172522682
Biohof - Eilte,"Großer Garten 6, 29693 Ahlden (Aller)",52.76126724034709,9.498392373732868
Kattendorfer Hofladen,"Dorfstraße 1a, 24568 Kattendorf",53.84530740420227,10.023423741365706
Hofladen Demeter Hof Wörme,"Im Dorfe 28, 21256 Handeloh",53.26311874670909,9.866645916382321
Hofladen Falkensee,"Dallgower Straße 1, 14624 Dallgow-Döberitz",52.543973223487015,13.091191739146002
Der Landladen,"Dorfstraße 12, 31275 Lehrte",52.409316811713445,9.987828322607823
Schlossgut Obbach,"Dr.-Georg-Schäfer-Straße 5, 97502 Euerbach",50.07471431029154,10.09318136351334
Bauer Meins,"Kronsforder Hauptstraße 69, 23560 Lübeck",53.79802426185413,10.621909590723318
Waidhof Ihringen,"Waidweg 1, 79241 Ihringen",48.03716656459212,7.650329469908753
"Nöhrenhof
Der Landladen","Im Jägerwinkel 2, 31275 Lehrte",52.37044272043593,9.98483758331237
Farmers Market Jörn Meyer Gemüsebau,"Kremper Rhin 6, 25348 Blomesche Wildnis",53.79892147816242,9.452442213664275
"Brünings Scheune, Fischerhude","Landstraße 22, 28870 Ottersberg",53.1164341373176,9.054499154432081
Bioland Gärtnerei Neiteler,"Baumberg 68, 48301 Nottuln",51.96913855295086,7.359372342413854
Gut Wulksfelde,"Wulksfekder Damm 15-17, 22889 Tangstedt",53.717867342291505,10.111963582693466
Obsthof Mertens,"Rethelstraße 123, 40237 Düsseldorf",51.237340988377476,6.7987523348737815
Hof Wittschap,"Rendsburger Landstraße 510, 24111 Kiel",54.30349075510914,10.04681200858434
Hofladen Seibt,"Fischeiner Straße 80, 40668 Meerbusch",51.297754935712106,6.622398353897798
Gärtnerei Pummerer,"Tinning 11a, 83083 Riedering",47.82541495670725,12.21665357325435
Marienhof Gerlfangen,"Lommerweg, 66780 Rehlingen-Siersburg",49.386434134914296,6.625276537729732
"Hoftalente, Hannover Seelhorster Straße","Seelhorster Straße 12, 30175 Hannover",52.37638906788959,9.756267912320826
Hof Erbenheim,"Oberfeld 30, 65205 Wiesbaden",50.0649230773144,8.316631931210193
Biokiste Ortlieb,"Uhlbacher Str. 201, 70329 Stuttgart",48.7751918135128,9.27684289417116
Bauern- & Hofladen Wulhorst,"Tinkhofstraße 184, 45731 Waltrop",51.6114652523555,7.4312594539756365
Demeter Hof Breit Wittlich,"Hinter der Breit, 54516 Wittlich",49.968202802495995,6.857446404216327
Hofgut Oberfeld,"Erbacher Str. 125, 64287 Darmstadt",49.873045053873085,8.684120652235489
Hof Neuerer,"Schwalbacher Str 4, 65388 Schlangenbad",50.10816191185933,8.09904914101171
Hofladen Medelby,"Norderfeldweg 1, 24994 Medelby",54.819081818001415,9.169609887778716
Gut Bollheim,"Haus Bollheim 1, 53909 Zülpich",50.6980968785207,6.712017868756
Gartenbau Linke-Hof Reinhard Sommer,"Brandiser Str. 79, 04316 Leipzig",51.32342244713506,12.485773168076328
Buchholzhof,"Am Buchholz 13, 45470 Mülheim an der Ruhr",51.39111241431924,6.943608724683736
Irenes Brotlädle,"Schwärzloch 1, 72070 Tübingen",48.517399192072126,9.02349766974855
Dottenfelder Hof,"Dottenfelder Hof 1, 61118 Bad Vilbel",50.193214049791756,8.753713825675577
Geflügelhof Gut Holz,"Unterdüssel 17, 42489 Wülfrath",51.275389482911784,7.054566271768386
Kochs,"Kastanienallee1, 31515 Wunsdorf",52.44900048854593,9.454576410396584
Gärtnerhof Röllingsen,"Am Eichkamp 3, 59494 Soest",51.5396154987709,8.026058996925498
Luisenhof,"Luisenhof 29, 75038 Flehingen",49.10700899498208,8.78217945444338
Mandt,"Taubenreiherweg 4, 53347 Alfter",50.74248427888472,7.005981212216283
derr HOF,"Holzbronn 1, 97999 Igersheim",49.52221401805899,9.813842117682439
Krusehof Eschede,"Hermannsburger Straße 50, 29348 Eschede",52.75193017324087,10.221474316040204
Bioarche Gerstner,"Eysölden F 1, 91177 Thalmässing",49.12757227489953,11.211058727456807
Hofladen Strouchs Hoob,"Hörlestraße 9, 35239 Steffenberg",50.840507348289535,8.440152903431166
Mailuster Hoflädchen,"Mailust 4, 56070 Koblenz",50.38879499288661,7.551425325687891
Jegglhof,"Burgselbergweg 4a, 86916 Kaufering",48.089197137810096,10.88194145438099
Schlicksupp,"Wiesenweg 35, 69121 Heidelberg",49.432910520344635,8.678217479104546
Hofladen Kormann,"Zum Steig 2, 91320 Ebermannstadt",49.76803049400244,11.261183585167322
Domäne Fredeburg,"Am Wildgehege 5, 23909 Fredeburg",53.67323193305082,10.724056270855655
Linckh Hofladen,"Hintere Gärten 4, 73553 Alfdorf",48.85652897361939,9.743190439691114
Steinäckerhof Schupp Gaildorf-Unterrot,"Steinäckerhof 1, 74405 Gaildorf",48.97745421318982,9.770190863375742
Hunsrücker Bio Gemüse,"Im Gässchen 4, 55471 Neuerkirch",50.015148906505964,7.4921045249901415
Bauer Grundhöfer,"Oberkirch 10, 54294 Trier",49.714222096922704,6.587818269822459
Hof Mertin,"Bönninghauserstraße 5, 44329 Dortmund",51.56335005134628,7.55306271069616
Irlenhof,"Irlenweg 3, 57223 Kreuztal",50.964192672126316,8.009033012230336
Hof Hinrichs,"Schmedeswurth 10, 25724 Schmedeswurth",53.92616706017631,9.041418645833403
Reisach Früchtegarten,"Alpenweg 16, 87665 Mauerstätten",47.886184440449775,10.667477279772267
Erdfrüchte,"Landschulheimweg 14, 26209 Hatten",53.04067925260051,8.255650709494772
Querfeldein,"Haft 4a, 77833 Ottersweier",48.66126166656154,8.113466010250546
Hofpunkt,"Obergrieser Straße, 83661 Lenggries",47.69468202196946,11.570091960211036
Biohof Baiersbach Familie Alber,"Am Baiersbach 24, 72631 Aichtal",48.618969592520976,9.246453118272177
Milchtankstelle Seehof in Lorsch,"Seehof 5, 64653 Lorsch",49.62262115457811,8.574085204253374
Stein‘s Kräuter&Garten,"Mainzer Straße 180, 55124 Mainz",50.00120932520593,8.22436704067397
Gut Rothenhausen,"Gut Rothenhausen 4, 23860 Groß Schenkenberg",53.80519651675551,10.600413389188866
Bauer Weiss,"Breite 75, 39261 Zerbst/Anhalt",51.96507846047376,12.092070347360016
Bannmühle (Odernheim),"Staudernheimer Straße 1, 55571 Odernheim am Glan",49.76814311478916,7.7045650019167375
Obergrashof,"Obergrashof 1, 85221 Dachau",48.25530932387723,11.491276424822416
Sulzburghof Lenningen,"Max-Leuze- Straße 10-16, 73252 Lenningen",48.56461051200281,9.454817462033615
Wittfelder Hof,"Wittfelder Hof 1, 53343 Wachtberg",50.6375259280704,7.111185540538865
Hofladen der Lebenshilfe Worms,Pipinstraße 4A67549 Worms,49.643605097755845,8.333026827124817
Adam's Hofladen – Pehlinger Hof,"Pehlinger Hof, 66780 Rehlingen-Siersburg",49.39261001392762,6.59682065934698
Hof Mahlitzsch,"Mahlitzsch 1, 01683 Nossen",51.078329747223655,13.367613563718033
Biolandhof Böse-Hartje,"Groß Eißel 26, 27321 Thedinghausen",52.979751979944155,9.00959510804153
Et Höffken,"Hohenscheid 1, 42659 Solingen",51.13976026301856,7.094329077668904
Milchschafhof Pimpinelle,"Lindenstraße 20, 15320 Neuhardenberg",52.61960366139705,14.265717293418788
Gut Altenoythe,"Vitusstraße 9, 26169 Friesoythe",53.033585167796105,7.869371433596619
Weilerhof,"Uhlandstraße 9, 63762 Großostheim",49.92739107636414,9.06901616151751
Mittelhammshof,"Margrefstraße 15, 45239 Essen",51.38661512265011,7.05241620778983
Radis&Bona,"Rilkestraße 5a, 93049 Regensburg",49.019514607645675,12.070190985029514
Biolandhof Petrik,"Am Heulenberg 1, 76327 Pfinztal",49.000815085401406,8.54553215961207
Dannwisch,"Dannwisch 1, 25358 Horst",53.79606447912661,9.612942241876965
Hofladen Eltersdorf in Erlangen,"Weinstraße 30, 91058 Erlangen",49.552540119539536,11.000695029452189
Meyerhof Belm,"Belmer Straße 11, 49191 Belm",52.30027883119101,8.14064044867566
Birgit's Hofladen,"Escherhäuser Straße 19, 37632 Eimen",51.886217958990095,9.751793319350934
HelDenHof,"Grenzhöfer Straße 30, 68535 Edingen-Neckarhausen",49.444891035195084,8.611606316906423
Baldenweger Hof,"Wittentalstraße 1, 79252 Stegen",47.98695901738759,7.947286515861109
Tristan‘s Biohof,"Gunzendorf 10, 91448 Emskirchen",49.555394960232235,10.743638686302358
Hochladen Löstrup,"Löstrup 6, 24966 Sörup",54.72527076082993,9.687052871417816
Zehetmair Hof,"Kanalstraße 2, 85774 Unterföhring",48.192458971836935,11.639945767657348
Obstbau Geibel,"Donnersbergring 45, 64295 Darmstadt",49.85831503616986,8.643985317391007
Hofladen Meinsen - Bückeburg,"Meinser Straße 36, 31675 Bückeburg",52.29713814756762,9.052361110752761
Lohmanns Landladen,"Eichenstraße 24, 27313 Dörverden",52.836961302478784,9.302648197828912
Hofladen Heitinger,"Halbinselstraße 6, 88142 Wasserburg (Bodensee)",47.56989315570411,9.637099802031146
Elbweiderind Hofladen Leipzig,"Zum Rosengarten 1, 04288 Leipzig",51.275535612150364,12.47024600196224
Hofladen Merlau,"Römerstraße 1A, 64291 Darmstadt",49.912636954221405,8.654933107808496
Gärtnerei Fritsche,"Roseggerstraße 14, 02763 Zittau",50.90594170603275,14.814597178939334
Niemöller Visbek,"Hogenbögen 21, 49429 Visbek",52.83200270902054,8.34762567354329
St. Töniser Obsthof,"Düsseldorfer Straße 4, 47918 Tönisvorst",51.32262899587984,6.471763767906222
Biolandhof Mack,"Knillweg 9, 89555 Steinheim am Albuch",48.679441635556074,10.073634894735768
Naturmilchhof Gartetal,"Schwarze G. 6, 37130 Gleichen",51.486017033627014,9.97988389998786
Westerhäuser Käsehof,"Unter dem Mühlenberg 410, 06502 Thale",51.80240380863521,11.049979340037728
Wünsche Manufaktur,"Ochsenwangerstraße 11, 73252 Lenningen",48.540695372356964,9.532055369652078
Obstbau Robert Rüdiger,"Pillnitzer Landstraße 301, 01326 Dresden",51.01910250646633,13.857623439052261
Hof Vierwindenberg,"Grubenweg 60, 56170 Bendorf",50.41822818691197,7.592165273953324
Gärtnerei Löwenzahn,"Buchweg 21, 84934 Reichling",47.927449208203804,10.920877191439331
Rellinger Hofladen,"Pinneberger Straße 38, 25462 Rellingen",53.65048774068448,9.852352854436255
Biohof Braun,"Hohbergstraße 14, 71665 Vaihingen an der Enz",48.916229417134254,8.935187697866338
Burtschützer Hof,"Burtschützer Straße 11, 06729 Elsteraue",51.05038528263824,12.175874412066758
"Hofladen Kiliansroda, Direktvermarktung Siegfried Hoffmann","Im Dorfe 26, 99441 Kiliansroda",50.91613496105924,11.371466659931594
Obsthof Riess,"Geiteldestraße 75, 38122 Braunschweig",52.21407543012159,10.46306092932777
Duventäster-Maier Gemüse und Bunte Vielfalt,"Dorfstraße 40, 78345 Moos",47.72449014872472,8.934739157519836
Knödlers Obstgarten,"Heidenhof 22, 71397 Leutenbach",48.91232876014132,9.380344450703078
Kampfelder Hof,"Hauptstraße 31, 30966 Hemmingen",52.28232815883104,9.713114524215625
Singer's Bauernladen,"Heroldsbacher Straße 42, 91353 Hausen",49.69328071823935,11.027761678693741
Hof Eggers in der Ohe,"Kirchwerder Mühlendamm 5, 21037 Hamburg",53.41011623456569,10.21982755638988
Biotal Hofladen & Café,"Talstraße 19, 89542 Herbrechtingen",48.60025350675122,10.179611320120106
Gut Kleinepähler,"Neuenkirchener Str. 204, 33397 Rietberg",51.81818122943941,8.471979272209364
Johannshof,"Westerender Weg 4, 26629 Großefehn",53.34907710107592,7.678853829959402
Schrot und Kern,"Springstrasse 19
37077 Göttingen – Weende",51.5642075579602,9.937200658576877
Weiler Hofladen,"Weilstraße 134, 73734 Esslingen am Neckar",48.73817873881208,9.282727089250656
Allerleirauh,"Raunstraße 2, 61209 Echzell",50.3717567925754,8.895643721970542
Riekens Landmilch,"Zum Eichhof 2, 24245 Großbarkau",54.22445725049439,10.169604370483055
Travenhof,"Travenhof, 23858 Reinfeld",53.82030904657369,10.456411545326986
Biolandhof Eichenhof,"Eichenhof 1, 57223 Kreuztal",50.99137434033164,7.972219197302605
"Himpsl-Hof, Marius Otto","Waterkamp 2A, 26188 Edewecht",53.11663170034895,7.950924812753822
Schulze Wethmar,"Waldweg 3, 44534 Lünen",51.62381377933214,7.558573570349099
Frankie's Hofladen,"Poppenreuther Str. 201, 90765 Fürth",49.47933338826045,11.020790510720573
Bioladen Kleincomburg,"Railäcker 1, 74544 Michelbach an der Bilz",49.093129026955744,9.749633239164082
Grüner Markt,"Schuirweg 105, 45133 Essen",51.395962065767016,6.958682554994488
Gärtnerhof Oberweyer,"Oberdorfstraße 9, 65589 Hadamar",50.45656530371689,8.095649956797988
Brunnenhof in der Ried,"Riedstraße 169, 45701 Herten",51.62769335085603,7.124404895484179
Gerbachhof,"Crayenbühlstraße 4, 67295 Bolanden",49.633223073667665,8.028803181892343
Biohof Miller | Felix Miller,"Badhaus 1, 88416 Steinhausen an der Rottum",48.02216160493322,9.899500356679724
Honighalle Imkerei Schiesser's,"Köpperner Str. 84, 61381 Friedrichsdorf",50.275098151200545,8.651081375832964
Inselhofladen Thams,"Schulstraße 1, 25849 Pellworm",54.53098016823193,8.66472728584235
Hofladen Albertshof,"Alberthof 1, 56477 Rennerod",50.601872426889344,8.058081327969411
Wendland Ziege,"Bausen 3, 29459 Clenze",52.968943510651776,10.988795302954347
Baumbachhof,"Baumbachweg 7, 75438 Knittlingen",48.99836846457728,8.747908318099004
Böttchehof,"Basler Str. 76A, 79227 Schallstadt",47.95695805666871,7.757360741333538
Kreuthof,"Kreuthof 1
73092 Heiningen",48.67893748313228,9.655869787397332
Hof Rabberg,"Toft 8, 24405 Rügge",54.687538100681365,9.763893534269924
Holzers Hofladen,"Birkenhöfe 3, 73269 Hochdorf",48.69490813607702,9.447668627876185
Biohof Overesch,"Hollich 8, 48565 Steinfurt",52.1681696670286,7.346078243391342
James Farm Shop,"Nordhackstedter Str. 2a, 24980 Hörup",54.73973988044918,9.104115855167146
Lauterhof Munk,"Äule 4, 73277 Owen",48.59689542474358,9.445196439513643
Neuland-Hof Runge,"Landstraße 78, 31717 Nordsehl",52.357199779626086,9.182735966685495
Schaumburger Waldimkerei,"Zum Forsthaus 21, 31552 Apelern",52.28616527462978,9.282754895517561
Bauernladen/Bioladen Johannes Röbbecke-Niermann,"Kirchender Dorfweg 26, 58313 Herdecke",51.41903840882575,7.424977683831429
"Hof Middendorf, Eier aus Stockum","Stockumer Feld 2, 49143 Bissendorf",52.249236366406834,8.188419358738555
Hofladen Austermann,"Neuwarendorf 24, 48231 Warendorf",51.95832711120456,7.948856056873321
Obstgut Morsbroich,"Auerweg 2, 51377 Leverkusen",51.03495578445474,7.032304212647913
Hof Hohlegruft,"Hohlegrufter Str. 4, 23813 Nehms",54.017129717644046,10.39085918396488
Hof Marktanner,"Marktanner 1, 88267 Vogt",47.75985784767192,9.757796556667225
Leyenhof,"Im Bachele 1B, 53175 Bonn",50.695361029962,7.121801054959405
Hofladen Schwalbenhof,"Rathausstraße 37, 55608 Berschweiler bei Kirn",49.77235785283042,7.387463954913838
Gartenoase,"Paul R. Kraemer-Allee 103, 50226 Frechen",50.93368350246405,6.796582027985931
Hof Severloh,"Dorfstraße 50, 29342 Wienhausen",52.587291052122765,10.206598210876114
Hofladen Scheuring,"Schindelberg 17, 76684 Östringen",49.198689486270986,8.765272954885829
Köhler,"Stadtweg 1, 21391 Reppenstedt",53.253018757166096,10.318953641596663
Spargel- und Kürbisscheune Hagenburg,"Altenhäger Str. 93, 31558 Hagenburg",52.43956224711017,9.346282183883211
"Kleinsägmühler Hof, Höningen","Kleinsägemühle 2, 67317 Altleiningen",49.51337341219149,8.095851883736906
Martinshof,"Martinshof, 67373 Dudenhofen",49.30682806573241,8.393839441398459
Hofladen Brunner,"Unterhainstraße 27, 63743 Aschaffenburg",49.96008144848824,9.153030799101925
Hof Neun Linden,"Billwerder Billdeich 480, 21033 Hamburg",53.50455228050263,10.16905305140151
Obstbau Felten,"Obsthof Am Rasselberg 1, 53340 Meckenheim",50.63090040078073,7.0269347126277335
Finther Obstlädchen,"Kurmainzstraße 10, 55126 Mainz",49.98344239940463,8.175919010745332
Hof Reinkensmeier,"Mindener Str. 421, 32049 Herford",52.152743333919204,8.71842374339053
Grüner Hof,"Mayerbacherstraße 84, 85737 Ismaning",48.22959469528722,11.702602270182256
Stautenhof,"Darderhöfe 1, 47877 Willich",51.28229621866304,6.472408701018071
Lehenhof Bioladen,"Fieteweg 1, 88693 Deggenhausertal",47.77577528345947,9.381159466149423
Harrys Hofladen,"Landgut 7a, 18059 Papendorf",54.04251077433795,12.090455410951558
Bauernhof Kleinlein,"Leichendorfer Str. 101, 90522 Oberasbach",49.4251867421256,10.948207524210629
Micheleshof,"Heidenhof 9, 71397 Leutenbach",48.91233279992008,9.382852126036179
Ölmühle Hof Becker,"Lindholzer Weg 1, 53859 Niederkassel",50.82446793347801,7.071803210787005
Hof Jüch Leverkusen,"Jüch 60, 51377 Leverkusen",51.046641875717015,7.067191626141182
Kleine Hofkäserei,"Raiffeisenstraße 5a, 85669 Pastetten",48.19957406175078,11.943015897166154
Steffenhof,"Am Steffenhof 10, 44269 Dortmund",51.47653321335735,7.511295683834343
Hielscher Hof,"Krähwinkel, 42799 Leichlingen (Rheinland)",51.11289498331293,7.1004840483879486
Mühlenclub Steinhöfel,"Str. d. Freundschaft 2, 15518 Steinhöfel",52.399981848890356,14.164774556895845
Stadtfarm Berlin,"Allee der Kosmonauten 16, 10315 Berlin",52.51990016021455,13.510907726215732
Vorwerk Podemus,"Podemuser Ring 1, 01156 Dresden",51.06047691176552,13.62839648381339
Obst und Spargelhof Wurth,"Lindenpl. 17, 77704 Oberkirch",48.54234392812668,8.012859262795544
Weidelandfarm am Riebener See,"Hennickendorfer Str. 35C, 14547 Beelitz",52.187393784938486,13.0436374974195
Gensheimer Bio-Hofladen,"Hauptstraße 97, 76877 Offenbach an der Queich",49.186503635414304,8.191642397275357
Hansmanns Bioladen,"Rotdornstraße 44, 38464 Groß Twülpstedt",52.38509784003383,10.919722139757905
Kartoffelboutique Senden,"Ferdinand-Lassalle-Weg 5, 89250 Senden",48.31304425897369,10.058540197171554
Auehof Reese,"Reese 5, 31595 Steyerberg",52.58220566211653,9.064099697383172
Biolandhof und Hofladen Familie Voltz,"In den Breitwiesen 1, 71576 Burgstetten",48.91258530707194,9.411299826036162
Sagstetters Gemüseladen,"Degernbach 2A, 84347 Pfarrkirchen",48.435454007497334,12.967355052998604
Hofladen Kraut + Rüben,"Steiermärker Str. 16, 76227 Karlsruhe",48.98583378228854,8.456217112547083
Hofladen Bannick,"Dorfstraße Bistensee 8a, 24358 Ahlefeld-Bistensee",54.396244657877695,9.705378526313273
Johanneshof Bender Mainz,"Am Olmer Weg 1, 55128 Mainz",49.97435437097167,8.23288465492377
Bioland-Gärtnerei Laiseacker,"Mühlweg 1, 71735 Eberdingen",48.898360440246975,8.929929568363931
Butz Gutshofmetzgerei,"Baumwieserhof 6, 63505 Langenselbold",50.20913307568833,9.052566781920623
Obsthof Hentzschel,"Alte Dorfstraße 35, 32289 Rödinghausen",52.25534802848299,8.478767712709605
Bürgershof Blomenkamp,"Dorfstraße 142, 47259 Duisburg",51.34792105939821,6.706188854992083
Bauer Aldenhoff,"Brauckweg 30, 46284 Dorsten",51.678153844613846,6.991291155008706
Hof Posewang,"Heidstücken 1, 22113 Oststeinbek",53.54391882032299,10.187536801133696
Hofladen Busch,"Am Neuendeich 191, 25348 Blomesche Wildnis",53.822006226540935,9.40322130906485
Biolandhof Frohnenbruch,"Schloßallee 81, 47475 Kamp-Lintfort",51.50794655018856,6.457320726164338
Hofgemeinschaft Grummersort,"Hauptmoorweg 3, 27798 Hude",53.1243835761383,8.37966815508264
Biohof Gerden,"Binsfelder Str. 301, 52351 Düren",50.79827902207036,6.506912210785653
Biohof Moll,"Haunswieser Str. 9, 86444 Affing",48.44917259704652,10.995776918482013
Gemüseliebe Robert,"Averesch 31, 48683 Ahaus",52.08812434868948,6.92919908392175
Spargelhof Lövenich,"Schillingsstraße 72, 52355 Düren",50.79548523724119,6.447148583858864
Bauer Ridder,"Rodenseelstraße 181, 45307 Essen",51.460167917613695,7.1044069010836015
Oerding´s Hof,"Am Reckberg 8, 41468 Neuss",51.172378704078305,6.77189615504138
Bioladen Hadamar-Faulbach,"Feldstraße 1, 65589 Hadamar",50.44683630736336,8.063096372198984
Biohof Herzkamp und Havixbeck,"Natrup 26, 48329 Havixbeck",51.965014919359305,7.444090697408633
Angersteiner Bauernhof,"Alte Str. 8, 37176 Nörten-Hardenberg",51.612282310252816,9.933275381990727
Hüttenthaler Molkerei,"Molkereiweg 1, 64756 Mossautal",49.61992536407713,8.944398881952987
Landhof Kömpel,"Aussiedlerhof 1, 36137 Großenlüder",50.58332999486523,9.53784839911069
Hof Hauswörmann,"Hauswörmannsweg 165, 49082 Osnabrück",52.246124937306234,8.043652234201616
Föhrer Inselkäse,"Hauptstraße 9, 25938 Alkersum",54.7094451625137,8.507956854865151
Biohof Groß,"Dorfbrunnen 1, 34576 Homberg (Efze)",51.04346649832739,9.37435698202098
Pfeilerhof,"Pfeilerweg 73, 76228 Karlsruhe",48.951458925622326,8.456301158635332
